EUTELSAT QUANTUM        
1 49056U 21069B   25289.53655784  .00000113  00000+0  00000+0 0  9994
2 49056   0.0332  60.6816 0002736 169.7826  35.7042  1.00271405 15487
EUTELSAT KONNECT VHTS   
1 53765U 22110A   25289.27092791  .00000004  00000+0  00000+0 0  9997
2 53765   0.0592  96.0052 0002576  96.5959 292.6730  1.00271461  4385
EUTELSAT HOTBIRD 13F    
1 54048U 22134A   25289.27292124  .00000073  00000+0  00000+0 0  9996
2 54048   0.0594 281.3583 0002170  76.2846 138.6537  1.00270168 10935
EUTELSAT HOTBIRD 13G    
1 54225U 22146A   25289.27292124  .00000074  00000+0  00000+0 0  9997
2 54225   0.0515 237.1166 0001905 304.6380 314.5500  1.00270076  5024
EUTELSAT 10B            
1 54259U 22157A   25289.34372824  .00000055  00000+0  00000+0 0  9999
2 54259   0.0617  93.3651 0001645  47.0382  18.4256  1.00270141 10584
EUTELSAT 36D            
1 59346U 24059A   25289.56291275  .00000143  00000+0  00000+0 0  9996
2 59346   0.0210 227.2410 0000081  80.8673 315.7119  1.00271124  5708
